{"type": "FeatureCollection", "features": [ {"type": "Feature", "properties": {"norad_id": 34058, "name": "COSMOS 2251 DEB", "group": "cosmos-2251-debris", "lat": 18.06991234263048, "lon": -31.655998044946216, "alt_km": 778.3471503437231, "timestamp": "2025-12-27T18:38:03.871480+00:00", "meta": {"OBJECT_NAME": "COSMOS 2251 DEB", "OBJECT_ID": "1993-036JV", "EPOCH": "2025-12-27T09:05:34.640160", "MEAN_MOTION": 13.56100418, "ECCENTRICITY": 0.0377234, "INCLINATION": 73.9319, "RA_OF_ASC_NODE": 154.3839, "ARG_OF_PERICENTER": 146.8364, "MEAN_ANOMALY": 232.9863, "EPHEMERIS_TYPE": 0, "CLASSIFICATION_TYPE": "U", "NORAD_CAT_ID": 34058, "ELEMENT_SET_NO": 999, "REV_AT_EPOCH": 83341, "BSTAR": 0.0008815, "MEAN_MOTION_DOT": 9.58e-06, "MEAN_MOTION_DDOT": 0}, "tle": {"line1": "1 34058U 93036JV  25361.37887315  .00000958  00000+0  88150-3 0  9996", "line2": "2 34058  73.9319 154.3839 0377234 146.8364 232.9863 13.56100418833416"}}, "geometry": {"type": "Point", "coordinates": [-31.655998044946216, 18.06991234263048]}}, {"type": "Feature", "properties": {"norad_id": 34059, "name": "COSMOS 2251 DEB", "group": "cosmos-2251-debris", "lat": -39.4461138816442, "lon": -8.470969754761612, "alt_km": 709.1635081971763, "timestamp": "2025-12-27T18:38:03.871490+00:00", "meta": {"OBJECT_NAME": "COSMOS 2251 DEB", "OBJECT_ID": "1993-036JW", "EPOCH": "2025-12-27T11:17:06.592416", "MEAN_MOTION": 14.53041939, "ECCENTRICITY": 0.0018345, "INCLINATION": 74.0378, "RA_OF_ASC_NODE": 158.4861, "ARG_OF_PERICENTER": 234.7175, "MEAN_ANOMALY": 185.4408, "EPHEMERIS_TYPE": 0, "CLASSIFICATION_TYPE": "U", "NORAD_CAT_ID": 34059, "ELEMENT_SET_NO": 999, "REV_AT_EPOCH": 88673, "BSTAR": 0.0010346, "MEAN_MOTION_DOT": 4.257e-05, "MEAN_MOTION_DDOT": 0}, "tle": {"line1": "1 34059U 93036JW  25361.47021519  .00004257  00000+0  10346-2 0  9991", "line2": "2 34059  74.0378 158.4861 0018345 234.7175 185.4408 14.53041939886736"}}, "geometry": {"type": "Point", "coordinates": [-8.470969754761612, -39.4461138816442]}}, {"type": "Feature", "properties": {"norad_id": 34061, "name": "COSMOS 2251 DEB", "group": "cosmos-2251-debris", "lat": -61.19220050583785, "lon": 86.95759513841256, "alt_km": 757.6197471332398, "timestamp": "2025-12-27T18:38:03.871501+00:00", "meta": {"OBJECT_NAME": "COSMOS 2251 DEB", "OBJECT_ID": "1993-036JY", "EPOCH": "2025-12-27T09:58:09.446304", "MEAN_MOTION": 14.40386437, "ECCENTRICITY": 0.0020949, "INCLINATION": 74.0381, "RA_OF_ASC_NODE": 236.2624, "ARG_OF_PERICENTER": 311.133, "MEAN_ANOMALY": 223.3228, "EPHEMERIS_TYPE": 0, "CLASSIFICATION_TYPE": "U", "NORAD_CAT_ID": 34061, "ELEMENT_SET_NO": 999, "REV_AT_EPOCH": 88391, "BSTAR": 0.00030475, "MEAN_MOTION_DOT": 9.43e-06, "MEAN_MOTION_DDOT": 0}, "tle": {"line1": "1 34061U 93036JY  25361.41538711  .00000943  00000+0  30475-3 0  9999", "line2": "2 34061  74.0381 236.2624 0020949 311.1330 223.3228 14.40386437883911"}}, "geometry": {"type": "Point", "coordinates": [86.95759513841256, -61.19220050583785]}}, {"type": "Feature", "properties": {"norad_id": 34062, "name": "COSMOS 2251 DEB", "group": "cosmos-2251-debris", "lat": -61.63191819602377, "lon": 76.4155823664131, "alt_km": 654.9919418758682, "timestamp": "2025-12-27T18:38:03.871512+00:00", "meta": {"OBJECT_NAME": "COSMOS 2251 DEB", "OBJECT_ID": "1993-036JZ", "EPOCH": "2025-12-27T09:28:30.025344", "MEAN_MOTION": 14.79260793, "ECCENTRICITY": 0.0072415, "INCLINATION": 74.0278, "RA_OF_ASC_NODE": 109.2001, "ARG_OF_PERICENTER": 185.209, "MEAN_ANOMALY": 236.2782, "EPHEMERIS_TYPE": 0, "CLASSIFICATION_TYPE": "U", "NORAD_CAT_ID": 34062, "ELEMENT_SET_NO": 999, "REV_AT_EPOCH": 88812, "BSTAR": 0.0029167, "MEAN_MOTION_DOT": 0.00022706, "MEAN_MOTION_DDOT": 0}, "tle": {"line1": "1 34062U 93036JZ  25361.39479196  .00022706  00000+0  29167-2 0  9994", "line2": "2 34062  74.0278 109.2001 0072415 185.2090 236.2782 14.79260793888127"}}, "geometry": {"type": "Point", "coordinates": [76.4155823664131, -61.63191819602377]}}, {"type": "Feature", "properties": {"norad_id": 34064, "name": "COSMOS 2251 DEB", "group": "cosmos-2251-debris", "lat": -31.468487914008122, "lon": -127.1206338398123, "alt_km": 741.254102511858, "timestamp": "2025-12-27T18:38:03.871522+00:00", "meta": {"OBJECT_NAME": "COSMOS 2251 DEB", "OBJECT_ID": "1993-036KB", "EPOCH": "2025-12-27T02:50:13.037280", "MEAN_MOTION": 14.4238582, "ECCENTRICITY": 0.00224202, "INCLINATION": 74.0315, "RA_OF_ASC_NODE": 244.1934, "ARG_OF_PERICENTER": 308.8499, "MEAN_ANOMALY": 201.7532, "EPHEMERIS_TYPE": 0, "CLASSIFICATION_TYPE": "U", "NORAD_CAT_ID": 34064, "ELEMENT_SET_NO": 999, "REV_AT_EPOCH": 88349, "BSTAR": 0.00052948884, "MEAN_MOTION_DOT": 1.73e-05, "MEAN_MOTION_DDOT": 0}, "tle": {"line1": "1 34064U 93036KB  25361.11820645  .00001730  00000+0  52949-3 0  9994", "line2": "2 34064  74.0315 244.1934 0022420 308.8499 201.7532 14.42385820883496"}}, "geometry": {"type": "Point", "coordinates": [-127.1206338398123, -31.468487914008122]}}, {"type": "Feature", "properties": {"norad_id": 34065, "name": "COSMOS 2251 DEB", "group": "cosmos-2251-debris", "lat": 65.8456863595913, "lon": 10.755112131526056, "alt_km": 767.7217456213502, "timestamp": "2025-12-27T18:38:03.871532+00:00", "meta": {"OBJECT_NAME": "COSMOS 2251 DEB", "OBJECT_ID": "1993-036KC", "EPOCH": "2025-12-27T02:08:08.317824", "MEAN_MOTION": 14.38077406, "ECCENTRICITY": 0.00169321, "INCLINATION": 74.0345, "RA_OF_ASC_NODE": 231.6907, "ARG_OF_PERICENTER": 326.8531, "MEAN_ANOMALY": 183.8139, "EPHEMERIS_TYPE": 0, "CLASSIFICATION_TYPE": "U", "NORAD_CAT_ID": 34065, "ELEMENT_SET_NO": 999, "REV_AT_EPOCH": 88411, "BSTAR": 0.00016680362, "MEAN_MOTION_DOT": 4.8e-06, "MEAN_MOTION_DDOT": 0}, "tle": {"line1": "1 34065U 93036KC  25361.08898516  .00000480  00000+0  16680-3 0  9996", "line2": "2 34065  74.0345 231.6907 0016932 326.8531 183.8139 14.38077406884115"}}, "geometry": {"type": "Point", "coordinates": [10.755112131526056, 65.8456863595913]}}, {"type": "Feature", "properties": {"norad_id": 34070, "name": "COSMOS 2251 DEB", "group": "cosmos-2251-debris", "lat": -45.14926738666871, "lon": 69.9467631960908, "alt_km": 647.4253032865945, "timestamp": "2025-12-27T18:38:03.871543+00:00", "meta": {"OBJECT_NAME": "COSMOS 2251 DEB", "OBJECT_ID": "1993-036KH", "EPOCH": "2025-12-27T00:09:31.015008", "MEAN_MOTION": 14.77504131, "ECCENTRICITY": 0.00175985, "INCLINATION": 74.0001, "RA_OF_ASC_NODE": 88.2241, "ARG_OF_PERICENTER": 205.6549, "MEAN_ANOMALY": 333.67, "EPHEMERIS_TYPE": 0, "CLASSIFICATION_TYPE": "U", "NORAD_CAT_ID": 34070, "ELEMENT_SET_NO": 999, "REV_AT_EPOCH": 88821, "BSTAR": 0.0027884526, "MEAN_MOTION_DOT": 0.00019967, "MEAN_MOTION_DDOT": 0}, "tle": {"line1": "1 34070U 93036KH  25361.00660897  .00019967  00000+0  27885-2 0  9991", "line2": "2 34070  74.0001  88.2241 0017598 205.6549 333.6700 14.77504131888216"}}, "geometry": {"type": "Point", "coordinates": [69.9467631960908, -45.14926738666871]}}, {"type": "Feature", "properties": {"norad_id": 34114, "name": "COSMOS 2251 DEB", "group": "cosmos-2251-debris", "lat": 59.535305841785636, "lon": 166.26474127530977, "alt_km": 710.3519645917795, "timestamp": "2025-12-27T18:38:03.871553+00:00", "meta": {"OBJECT_NAME": "COSMOS 2251 DEB", "OBJECT_ID": "1993-036KK", "EPOCH": "2025-12-27T12:13:36.129216", "MEAN_MOTION": 14.56586989, "ECCENTRICITY": 0.004842, "INCLINATION": 74.0591, "RA_OF_ASC_NODE": 15.8424, "ARG_OF_PERICENTER": 5.6107, "MEAN_ANOMALY": 150.6934, "EPHEMERIS_TYPE": 0, "CLASSIFICATION_TYPE": "U", "NORAD_CAT_ID": 34114, "ELEMENT_SET_NO": 999, "REV_AT_EPOCH": 88016, "BSTAR": 0.0020883, "MEAN_MOTION_DOT": 9.439e-05, "MEAN_MOTION_DDOT": 0}, "tle": {"line1": "1 34114U 93036KK  25361.50944594  .00009439  00000+0  20883-2 0  9998", "line2": "2 34114  74.0591  15.8424 0048420   5.6107 150.6934 14.56586989880164"}}, "geometry": {"type": "Point", "coordinates": [166.26474127530977, 59.535305841785636]}}, {"type": "Feature", "properties": {"norad_id": 34115, "name": "COSMOS 2251 DEB", "group": "cosmos-2251-debris", "lat": 36.700227433183315, "lon": -135.3640253019988, "alt_km": 607.1108214131045, "timestamp": "2025-12-27T18:38:03.871563+00:00", "meta": {"OBJECT_NAME": "COSMOS 2251 DEB", "OBJECT_ID": "1993-036KL", "EPOCH": "2025-12-27T00:36:47.390400", "MEAN_MOTION": 14.79676765, "ECCENTRICITY": 0.00291437, "INCLINATION": 74.0053, "RA_OF_ASC_NODE": 213.771, "ARG_OF_PERICENTER": 33.0264, "MEAN_ANOMALY": 327.2724, "EPHEMERIS_TYPE": 0, "CLASSIFICATION_TYPE": "U", "NORAD_CAT_ID": 34115, "ELEMENT_SET_NO": 999, "REV_AT_EPOCH": 89623, "BSTAR": 0.0010549314, "MEAN_MOTION_DOT": 7.952e-05, "MEAN_MOTION_DDOT": 0}, "tle": {"line1": "1 34115U 93036KL  25361.02554850  .00007952  00000+0  10549-2 0  9994", "line2": "2 34115  74.0053 213.7710 0029143  33.0264 327.2724 14.79676765896236"}}, "geometry": {"type": "Point", "coordinates": [-135.3640253019988, 36.700227433183315]}}, {"type": "Feature", "properties": {"norad_id": 34116, "name": "COSMOS 2251 DEB", "group": "cosmos-2251-debris", "lat": 4.799296088562178, "lon": 155.78846936045545, "alt_km": 723.3991013594068, "timestamp": "2025-12-27T18:38:03.871574+00:00", "meta": {"OBJECT_NAME": "COSMOS 2251 DEB", "OBJECT_ID": "1993-036KM", "EPOCH": "2025-12-27T12:18:00.697248", "MEAN_MOTION": 14.5306965, "ECCENTRICITY": 0.0011729, "INCLINATION": 74.0402, "RA_OF_ASC_NODE": 154.9094, "ARG_OF_PERICENTER": 231.6117, "MEAN_ANOMALY": 193.3536, "EPHEMERIS_TYPE": 0, "CLASSIFICATION_TYPE": "U", "NORAD_CAT_ID": 34116, "ELEMENT_SET_NO": 999, "REV_AT_EPOCH": 88701, "BSTAR": 0.0010111, "MEAN_MOTION_DOT": 4.157e-05, "MEAN_MOTION_DDOT": 0}, "tle": {"line1": "1 34116U 93036KM  25361.51250807  .00004157  00000+0  10111-2 0  9993", "line2": "2 34116  74.0402 154.9094 0011729 231.6117 193.3536 14.53069650887010"}}, "geometry": {"type": "Point", "coordinates": [155.78846936045545, 4.799296088562178]}}]}